[
  {
    "city": "臺北市",
    "city_en": "Taipei City",
    "districts": [
      { "name": "中正區", "name_en": "Zhongzheng District", "longitude": 121.5198839, "latitude": 25.03240487 },
      { "name": "大同區", "name_en": "Datong District", "longitude": 121.5130417, "latitude": 25.06342433 },
      { "name": "中山區", "name_en": "Zhongshan District", "longitude": 121.5381597, "latitude": 25.06969917 },
      { "name": "松山區", "name_en": "Songshan District", "longitude": 121.5575876, "latitude": 25.05999101 },
      { "name": "大安區", "name_en": "Da'an District", "longitude": 121.5434446, "latitude": 25.02677012 },
      { "name": "萬華區", "name_en": "Wanhua District", "longitude": 121.4979858, "latitude": 25.0285899 },
      { "name": "信義區", "name_en": "Xinyi District", "longitude": 121.5716697, "latitude": 25.03062083 },
      { "name": "士林區", "name_en": "Shilin District", "longitude": 121.5508473, "latitude": 25.12546704 },
      { "name": "北投區", "name_en": "Beitou District", "longitude": 121.5177992, "latitude": 25.1480682 },
      { "name": "內湖區", "name_en": "Neihu District", "longitude": 121.5923828, "latitude": 25.08370623 },
      { "name": "南港區", "name_en": "Nangang District", "longitude": 121.6097573, "latitude": 25.03600934 },
      { "name": "文山區", "name_en": "Wenshan District", "longitude": 121.5736082, "latitude": 24.98857934 }
    ]
  },
  {
    "city": "基隆市",
    "city_en": "Keelung City",
    "districts": [
      { "name": "仁愛區", "name_en": "Ren'ai District", "longitude": 121.7434205, "latitude": 25.11945421 },
      { "name": "信義區", "name_en": "Xinyi District", "longitude": 121.772646, "latitude": 25.12576579 },
      { "name": "中正區", "name_en": "Zhongzheng District", "longitude": 121.7783549, "latitude": 25.14365754 },
      { "name": "中山區", "name_en": "Zhongshan District", "longitude": 121.7308913, "latitude": 25.14986365 },
      { "name": "安樂區", "name_en": "Anle District", "longitude": 121.7078325, "latitude": 25.14139521 },
      { "name": "暖暖區", "name_en": "Nuannuan District", "longitude": 121.7447344, "latitude": 25.08097003 },
      { "name": "七堵區", "name_en": "Qidu District", "longitude": 121.683628, "latitude": 25.10962028 }
    ]
  },
  {
    "city": "新北市",
    "city_en": "New Taipei City",
    "districts": [
      { "name": "萬里區", "name_en": "Wanli District", "longitude": 121.6439307, "latitude": 25.17572457 },
      { "name": "金山區", "name_en": "Jinshan District", "longitude": 121.6052639, "latitude": 25.21714594 },
      { "name": "板橋區", "name_en": "Banqiao District", "longitude": 121.4579675, "latitude": 25.01186453 },
      { "name": "汐止區", "name_en": "Xizhi District", "longitude": 121.6546992, "latitude": 25.07331322 },
      { "name": "深坑區", "name_en": "Shenkeng District", "longitude": 121.6200624, "latitude": 24.99767506 },
      { "name": "石碇區", "name_en": "Shiding District", "longitude": 121.6472277, "latitude": 24.94714107 },
      { "name": "瑞芳區", "name_en": "Ruifang District", "longitude": 121.8232018, "latitude": 25.0981293 },
      { "name": "平溪區", "name_en": "Pingxi District", "longitude": 121.7578817, "latitude": 25.02607068 },
      { "name": "雙溪區", "name_en": "Shuangxi District", "longitude": 121.8329822, "latitude": 24.99698394 },
      { "name": "貢寮區", "name_en": "Gongliao District", "longitude": 121.9182466, "latitude": 25.02485641 },
      { "name": "新店區", "name_en": "Xindian District", "longitude": 121.5316565, "latitude": 24.93039008 },
      { "name": "坪林區", "name_en": "Pinglin District", "longitude": 121.724223, "latitude": 24.91097073 },
      { "name": "烏來區", "name_en": "Wulai District", "longitude": 121.5414806, "latitude": 24.78824295 },
      { "name": "永和區", "name_en": "Yonghe District", "longitude": 121.516745, "latitude": 25.00810199 },
      { "name": "中和區", "name_en": "Zhonghe District", "longitude": 121.4936744, "latitude": 24.99088039 },
      { "name": "土城區", "name_en": "Tucheng District", "longitude": 121.445737, "latitude": 24.96425102 },
      { "name": "三峽區", "name_en": "Sanxia District", "longitude": 121.4163094, "latitude": 24.88209766 },
      { "name": "樹林區", "name_en": "Shulin District", "longitude": 121.401034, "latitude": 24.97970609 },
      { "name": "鶯歌區", "name_en": "Yingge District", "longitude": 121.3466269, "latitude": 24.9566258 },
      { "name": "三重區", "name_en": "Sanchong District", "longitude": 121.4870977, "latitude": 25.06281651 },
      { "name": "新莊區", "name_en": "Xinzhuang District", "longitude": 121.4367535, "latitude": 25.0358303 },
      { "name": "泰山區", "name_en": "Taishan District", "longitude": 121.4312061, "latitude": 25.05943486 },
      { "name": "林口區", "name_en": "Linkou District", "longitude": 121.391741, "latitude": 25.07753147 },
      { "name": "蘆洲區", "name_en": "Luzhou District", "longitude": 121.4697394, "latitude": 25.08738362 },
      { "name": "五股區", "name_en": "Wugu District", "longitude": 121.4385966, "latitude": 25.08447817 },
      { "name": "八里區", "name_en": "Bali District", "longitude": 121.398226, "latitude": 25.1466827 },
      { "name": "淡水區", "name_en": "Tamsui District", "longitude": 121.4443685, "latitude": 25.17081735 },
      { "name": "三芝區", "name_en": "Sanzhi District", "longitude": 121.5011942, "latitude": 25.25708573 },
      { "name": "石門區", "name_en": "Shimen District", "longitude": 121.5678442, "latitude": 25.29038202 }
    ]
  },
  {
    "city": "連江縣",
    "city_en": "Lienchiang County",
    "districts": [
      { "name": "南竿鄉", "name_en": "Nangan Township", "longitude": 119.931128, "latitude": 26.154321 },
      { "name": "北竿鄉", "name_en": "Beigan Township", "longitude": 119.994251, "latitude": 26.225637 },
      { "name": "莒光鄉", "name_en": "Juguang Township", "longitude": 119.938877, "latitude": 25.97298 },
      { "name": "東引鄉", "name_en": "Dongyin Township", "longitude": 120.4903, "latitude": 26.366101 }
    ]
  },
  {
    "city": "桃園市",
    "city_en": "Taoyuan City",
    "districts": [
      { "name": "桃園區", "name_en": "Taoyuan District", "longitude": 121.3121516, "latitude": 24.99304306 },
      { "name": "中壢區", "name_en": "Zhongli District", "longitude": 121.224855, "latitude": 24.960207 },
      { "name": "大溪區", "name_en": "Daxi District", "longitude": 121.2866992, "latitude": 24.88031358 },
      { "name": "楊梅區", "name_en": "Yangmei District", "longitude": 121.1456956, "latitude": 24.9126601 },
      { "name": "蘆竹區", "name_en": "Luzhu District", "longitude": 121.2917711, "latitude": 25.04576135 },
      { "name": "大園區", "name_en": "Dayuan District", "longitude": 121.1965158, "latitude": 25.06342898 },
      { "name": "龜山區", "name_en": "Guishan District", "longitude": 121.3375815, "latitude": 25.00067302 },
      { "name": "八德區", "name_en": "Bade District", "longitude": 121.2847704, "latitude": 24.92985448 },
      { "name": "龍潭區", "name_en": "Longtan District", "longitude": 121.2163989, "latitude": 24.86470389 },
      { "name": "平鎮區", "name_en": "Pingzhen District", "longitude": 121.2183921, "latitude": 24.94528148 },
      { "name": "新屋區", "name_en": "Xinwu District", "longitude": 121.1054363, "latitude": 24.97233827 },
      { "name": "觀音區", "name_en": "Guanyin District", "longitude": 121.0772702, "latitude": 25.03478794 },
      { "name": "復興區", "name_en": "Fuxing District", "longitude": 121.352467, "latitude": 24.82137632 }
    ]
  },
  {
    "city": "新竹市",
    "city_en": "Hsinchu City",
    "districts": [
      { "name": "東區", "name_en": "East District", "longitude": 120.9734327, "latitude": 24.80164627 },
      { "name": "北區", "name_en": "North District", "longitude": 120.9634044, "latitude": 24.81525413 },
      { "name": "香山區", "name_en": "Xiangshan District", "longitude": 120.9332219, "latitude": 24.76451877 }
    ]
  },
  {
    "city": "新竹縣",
    "city_en": "Hsinchu County",
    "districts": [
      { "name": "竹北市", "name_en": "Zhubei City", "longitude": 121.0116858, "latitude": 24.83921102 },
      { "name": "湖口鄉", "name_en": "Hukou Township", "longitude": 121.043588, "latitude": 24.90387532 },
      { "name": "新豐鄉", "name_en": "Xinfeng Township", "longitude": 120.9829482, "latitude": 24.90595305 },
      { "name": "新埔鎮", "name_en": "Xinpu Township", "longitude": 121.0728362, "latitude": 24.82775791 },
      { "name": "關西鎮", "name_en": "Guanxi Township", "longitude": 121.1764667, "latitude": 24.7909303 },
      { "name": "芎林鄉", "name_en": "Qionglin Township", "longitude": 121.0768407, "latitude": 24.77364403 },
      { "name": "寶山鄉", "name_en": "Baoshan Township", "longitude": 121.0543717, "latitude": 24.7610191 },
      { "name": "竹東鎮", "name_en": "Zhudong Township", "longitude": 121.0858888, "latitude": 24.73715102 },
      { "name": "五峰鄉", "name_en": "Wufeng Township", "longitude": 121.114777, "latitude": 24.629391 },
      { "name": "橫山鄉", "name_en": "Hengshan Township", "longitude": 121.1415442, "latitude": 24.70882772 },
      { "name": "尖石鄉", "name_en": "Jianshi Township", "longitude": 121.202358, "latitude": 24.704259 },
      { "name": "北埔鄉", "name_en": "Beipu Township", "longitude": 121.0579627, "latitude": 24.69966144 },
      { "name": "峨眉鄉", "name_en": "Emei Township", "longitude": 121.0150917, "latitude": 24.6859341 }
    ]
  },
  {
    "city": "苗栗縣",
    "city_en": "Miaoli County",
    "districts": [
      { "name": "竹南鎮", "name_en": "Zhunan Township", "longitude": 120.875355, "latitude": 24.68652236 },
      { "name": "頭份市", "name_en": "Toufen City", "longitude": 120.910398, "latitude": 24.68817282 },
      { "name": "三灣鄉", "name_en": "Sanwan Township", "longitude": 120.9529606, "latitude": 24.65403192 },
      { "name": "南庄鄉", "name_en": "Nanzhuang Township", "longitude": 120.995966, "latitude": 24.598279 },
      { "name": "獅潭鄉", "name_en": "Shitan Township", "longitude": 120.91928, "latitude": 24.540801 },
      { "name": "後龍鎮", "name_en": "Houlong Township", "longitude": 120.7876881, "latitude": 24.61339893 },
      { "name": "通霄鎮", "name_en": "Tongxiao Township", "longitude": 120.6775618, "latitude": 24.48906911 },
      { "name": "苑裡鎮", "name_en": "Yuanli Township", "longitude": 120.6559632, "latitude": 24.44299538 },
      { "name": "苗栗市", "name_en": "Miaoli City", "longitude": 120.8190779, "latitude": 24.56170679 },
      { "name": "造橋鄉", "name_en": "Zaoqiao Township", "longitude": 120.8624137, "latitude": 24.63690623 },
      { "name": "頭屋鄉", "name_en": "Touwu Township", "longitude": 120.8466652, "latitude": 24.57500392 },
      { "name": "公館鄉", "name_en": "Gongguan Township", "longitude": 120.8228562, "latitude": 24.50290945 },
      { "name": "大湖鄉", "name_en": "Dahu Township", "longitude": 120.868731, "latitude": 24.425316 },
      { "name": "泰安鄉", "name_en": "Tai'an Township", "longitude": 120.90382, "latitude": 24.437979 },
      { "name": "銅鑼鄉", "name_en": "Tongluo Township", "longitude": 120.7872087, "latitude": 24.48496464 },
      { "name": "三義鄉", "name_en": "Sanyi Township", "longitude": 120.7634127, "latitude": 24.41097241 },
      { "name": "西湖鄉", "name_en": "Xihu Township", "longitude": 120.7490074, "latitude": 24.5385611 },
      { "name": "卓蘭鎮", "name_en": "Zhuolan Township", "longitude": 120.825832, "latitude": 24.310153 }
    ]
  },
  {
    "city": "臺中市",
    "city_en": "Taichung City",
    "districts": [
      { "name": "中區", "name_en": "Central District", "longitude": 120.681123, "latitude": 24.14300435 },
      { "name": "東區", "name_en": "East District", "longitude": 120.7024345, "latitude": 24.13601569 },
      { "name": "南區", "name_en": "South District", "longitude": 120.6629235, "latitude": 24.11663044 },
      { "name": "西區", "name_en": "West District", "longitude": 120.669527, "latitude": 24.14208226 },
      { "name": "北區", "name_en": "North District", "longitude": 120.6826065, "latitude": 24.16201314 },
      { "name": "北屯區", "name_en": "Beitun District", "longitude": 120.6853697, "latitude": 24.17296068 },
      { "name": "西屯區", "name_en": "Xitun District", "longitude": 120.6402437, "latitude": 24.17387399 },
      { "name": "南屯區", "name_en": "Nantun District", "longitude": 120.6369041, "latitude": 24.14251216 },
      { "name": "太平區", "name_en": "Taiping District", "longitude": 120.7126157, "latitude": 24.1265814 },
      { "name": "大里區", "name_en": "Dali District", "longitude": 120.677561, "latitude": 24.10303862 },
      { "name": "霧峰區", "name_en": "Wufeng District", "longitude": 120.6974103, "latitude": 24.06206121 },
      { "name": "烏日區", "name_en": "Wuri District", "longitude": 120.622573, "latitude": 24.10642353 },
      { "name": "豐原區", "name_en": "Fengyuan District", "longitude": 120.7183619, "latitude": 24.25301815 },
      { "name": "后里區", "name_en": "Houli District", "longitude": 120.7101886, "latitude": 24.30605929 },
      { "name": "石岡區", "name_en": "Shigang District", "longitude": 120.7788481, "latitude": 24.27552945 },
      { "name": "東勢區", "name_en": "Dongshi District", "longitude": 120.8272993, "latitude": 24.2585489 },
      { "name": "和平區", "name_en": "Heping District", "longitude": 120.932312, "latitude": 24.204593 },
      { "name": "新社區", "name_en": "Xinshe District", "longitude": 120.814324, "latitude": 24.23000624 },
      { "name": "潭子區", "name_en": "Tanzi District", "longitude": 120.7061765, "latitude": 24.20986064 },
      { "name": "大雅區", "name_en": "Daya District", "longitude": 120.6472483, "latitude": 24.22915891 },
      { "name": "神岡區", "name_en": "Shengang District", "longitude": 120.6617062, "latitude": 24.25752185 },
      { "name": "大肚區", "name_en": "Dadu District", "longitude": 120.5401925, "latitude": 24.15286566 },
      { "name": "沙鹿區", "name_en": "Shalu District", "longitude": 120.5583488, "latitude": 24.2335122 },
      { "name": "龍井區", "name_en": "Longjing District", "longitude": 120.5458025, "latitude": 24.21855263 },
      { "name": "梧棲區", "name_en": "Wuqi District", "longitude": 120.5317769, "latitude": 24.25547029 },
      { "name": "清水區", "name_en": "Qingshui District", "longitude": 120.5385623, "latitude": 24.26875865 },
      { "name": "大甲區", "name_en": "Dajia District", "longitude": 120.6234157, "latitude": 24.34757367 },
      { "name": "外埔區", "name_en": "Waipu District", "longitude": 120.654854, "latitude": 24.33157588 },
      { "name": "大安區", "name_en": "Da'an District", "longitude": 120.5855878, "latitude": 24.34606272 }
    ]
  },
  {
    "city": "彰化縣",
    "city_en": "Changhua County",
    "districts": [
      { "name": "彰化市", "name_en": "Changhua City", "longitude": 120.544154, "latitude": 24.081701 },
      { "name": "鹿港鎮", "name_en": "Lukang Township", "longitude": 120.435427, "latitude": 24.056938 },
      { "name": "和美鎮", "name_en": "He-mei Township", "longitude": 120.500244, "latitude": 24.111005 },
      { "name": "線西鄉", "name_en": "Xianxi Township", "longitude": 120.465924, "latitude": 24.131114 },
      { "name": "伸港鄉", "name_en": "Shengang Township", "longitude": 120.48421, "latitude": 24.145781 },
      { "name": "福興鄉", "name_en": "Fuxing Township", "longitude": 120.443729, "latitude": 24.047871 },
      { "name": "秀水鄉", "name_en": "Xiushui Township", "longitude": 120.502758, "latitude": 24.035541 },
      { "name": "花壇鄉", "name_en": "Huatan Township", "longitude": 120.540139, "latitude": 24.022363 },
      { "name": "芬園鄉", "name_en": "Fenyuan Township", "longitude": 120.627791, "latitude": 24.013978 },
      { "name": "員林市", "name_en": "Yuanlin City", "longitude": 120.574632, "latitude": 23.958933 },
      { "name": "溪湖鎮", "name_en": "Xihu Township", "longitude": 120.479075, "latitude": 23.962259 },
      { "name": "田中鎮", "name_en": "Tianzhong Township", "longitude": 120.591039, "latitude": 23.859013 },
      { "name": "大村鄉", "name_en": "Dacun Township", "longitude": 120.54051, "latitude": 23.993416 },
      { "name": "埔鹽鄉", "name_en": "Puyan Township", "longitude": 120.464117, "latitude": 24.001655 },
      { "name": "埔心鄉", "name_en": "Puxin Township", "longitude": 120.543549, "latitude": 23.951594 },
      { "name": "永靖鄉", "name_en": "Yongjing Township", "longitude": 120.54784, "latitude": 23.923831 },
      { "name": "社頭鄉", "name_en": "Shetou Township", "longitude": 120.582885, "latitude": 23.896752 },
      { "name": "二水鄉", "name_en": "Ershui Township", "longitude": 120.618797, "latitude": 23.811553 },
      { "name": "北斗鎮", "name_en": "Beidou Township", "longitude": 120.520336, "latitude": 23.870837 },
      { "name": "二林鎮", "name_en": "Erlin Township", "longitude": 120.410188, "latitude": 23.899385 },
      { "name": "田尾鄉", "name_en": "Tianwei Township", "longitude": 120.525042, "latitude": 23.891395 },
      { "name": "埤頭鄉", "name_en": "Pitou Township", "longitude": 120.462744, "latitude": 23.891506 },
      { "name": "芳苑鄉", "name_en": "Fangyuan Township", "longitude": 120.32049, "latitude": 23.924298 },
      { "name": "大城鄉", "name_en": "Dacheng Township", "longitude": 120.320743, "latitude": 23.85293 },
      { "name": "竹塘鄉", "name_en": "Zhutang Township", "longitude": 120.427923, "latitude": 23.859661 },
      { "name": "溪州鄉", "name_en": "Xizhou Township", "longitude": 120.490072, "latitude": 23.850409 }
    ]
  },
  {
    "city": "南投縣",
    "city_en": "Nantou County",
    "districts": [
      { "name": "南投市", "name_en": "Nantou City", "longitude": 120.683706, "latitude": 23.910323 },
      { "name": "埔里鎮", "name_en": "Puli Township", "longitude": 120.967812, "latitude": 23.966336 },
      { "name": "草屯鎮", "name_en": "Caotun Township", "longitude": 120.68652, "latitude": 23.984577 },
      { "name": "竹山鎮", "name_en": "Zhushan Township", "longitude": 120.686861, "latitude": 23.757805 },
      { "name": "集集鎮", "name_en": "Jiji Township", "longitude": 120.783637, "latitude": 23.829015 },
      { "name": "名間鄉", "name_en": "Mingjian Township", "longitude": 120.702812, "latitude": 23.839845 },
      { "name": "鹿谷鄉", "name_en": "Lugu Township", "longitude": 120.752763, "latitude": 23.744473 },
      { "name": "中寮鄉", "name_en": "Zhongliao Township", "longitude": 120.76678, "latitude": 23.902641 },
      { "name": "魚池鄉", "name_en": "Yuchi Township", "longitude": 120.935109, "latitude": 23.896173 },
      { "name": "國姓鄉", "name_en": "Guoxing Township", "longitude": 120.858711, "latitude": 24.048743 },
      { "name": "水里鄉", "name_en": "Shuili Township", "longitude": 120.856172, "latitude": 23.811822 },
      { "name": "信義鄉", "name_en": "Xinyi Township", "longitude": 120.85734, "latitude": 23.668582 },
      { "name": "仁愛鄉", "name_en": "Ren'ai Township", "longitude": 121.133282, "latitude": 24.024508 }
    ]
  },
  {
    "city": "雲林縣",
    "city_en": "Yunlin County",
    "districts": [
      { "name": "斗六市", "name_en": "Douliu City", "longitude": 120.544158, "latitude": 23.708316 },
      { "name": "斗南鎮", "name_en": "Dounan Township", "longitude": 120.479536, "latitude": 23.636756 },
      { "name": "虎尾鎮", "name_en": "Huwei Township", "longitude": 120.431238, "latitude": 23.709214 },
      { "name": "西螺鎮", "name_en": "Xiluo Township", "longitude": 120.461621, "latitude": 23.797967 },
      { "name": "土庫鎮", "name_en": "Tuku Township", "longitude": 120.392815, "latitude": 23.677332 },
      { "name": "北港鎮", "name_en": "Beigang Township", "longitude": 120.301984, "latitude": 23.567702 },
      { "name": "古坑鄉", "name_en": "Gukeng Township", "longitude": 120.56201, "latitude": 23.644155 },
      { "name": "大埤鄉", "name_en": "Dapi Township", "longitude": 120.429391, "latitude": 23.638217 },
      { "name": "莿桐鄉", "name_en": "Citong Township", "longitude": 120.50239, "latitude": 23.762885 },
      { "name": "林內鄉", "name_en": "Linnei Township", "longitude": 120.612543, "latitude": 23.759288 },
      { "name": "二崙鄉", "name_en": "Erlun Township", "longitude": 120.41544, "latitude": 23.771236 },
      { "name": "崙背鄉", "name_en": "Lunbei Township", "longitude": 120.354116, "latitude": 23.759186 },
      { "name": "麥寮鄉", "name_en": "Mailiao Township", "longitude": 120.252037, "latitude": 23.753386 },
      { "name": "東勢鄉", "name_en": "Dongshi Township", "longitude": 120.282929, "latitude": 23.674987 },
      { "name": "褒忠鄉", "name_en": "Baozhong Township", "longitude": 120.310344, "latitude": 23.694665 },
      { "name": "臺西鄉", "name_en": "Taixi Township", "longitude": 120.198357, "latitude": 23.702773 },
      { "name": "元長鄉", "name_en": "Yuanchang Township", "longitude": 120.315055, "latitude": 23.648079 },
      { "name": "四湖鄉", "name_en": "Sihu Township", "longitude": 120.225729, "latitude": 23.63757 },
      { "name": "口湖鄉", "name_en": "Kouhu Township", "longitude": 120.18654, "latitude": 23.582846 },
      { "name": "水林鄉", "name_en": "Shuilin Township", "longitude": 120.237463, "latitude": 23.570141 }
    ]
  },
  {
    "city": "嘉義市",
    "city_en": "Chiayi City",
    "districts": [
      { "name": "東區", "name_en": "East District", "longitude": 120.4578, "latitude": 23.4831 },
      { "name": "西區", "name_en": "West District", "longitude": 120.4357, "latitude": 23.4801 }
    ]
  },
  {
    "city": "嘉義縣",
    "city_en": "Chiayi County",
    "districts": [
      { "name": "番路鄉", "name_en": "Fanlu Township", "longitude": 120.5513, "latitude": 23.4655 },
      { "name": "梅山鄉", "name_en": "Meishan Township", "longitude": 120.5557, "latitude": 23.5847 },
      { "name": "竹崎鄉", "name_en": "Zhuqi Township", "longitude": 120.5513, "latitude": 23.5232 },
      { "name": "阿里山鄉", "name_en": "Alishan Township", "longitude": 120.7315, "latitude": 23.4682 },
      { "name": "大林鎮", "name_en": "Dalin Township", "longitude": 120.4575, "latitude": 23.6033 },
      { "name": "民雄鄉", "name_en": "Minxiong Township", "longitude": 120.435, "latitude": 23.5517 },
      { "name": "溪口鄉", "name_en": "Xikou Township", "longitude": 120.3938, "latitude": 23.604 },
      { "name": "新港鄉", "name_en": "Xingang Township", "longitude": 120.3478, "latitude": 23.5542 },
      { "name": "朴子市", "name_en": "Puzi City", "longitude": 120.2472, "latitude": 23.4683 },
      { "name": "太保市", "name_en": "Taibao City", "longitude": 120.3323, "latitude": 23.4593 },
      { "name": "布袋鎮", "name_en": "Budai Township", "longitude": 120.1507, "latitude": 23.3775 },
      { "name": "東石鄉", "name_en": "Dongshi Township", "longitude": 120.1542, "latitude": 23.4565 },
      { "name": "六腳鄉", "name_en": "Liujiao Township", "longitude": 120.2858, "latitude": 23.4983 },
      { "name": "鹿草鄉", "name_en": "Lucao Township", "longitude": 120.3087, "latitude": 23.4115 },
      { "name": "義竹鄉", "name_en": "Yizhu Township", "longitude": 120.244, "latitude": 23.3867 },
      { "name": "水上鄉", "name_en": "Shuishang Township", "longitude": 120.3975, "latitude": 23.4293 },
      { "name": "中埔鄉", "name_en": "Zhongpu Township", "longitude": 120.4852, "latitude": 23.4258 },
      { "name": "大埔鄉", "name_en": "Dapu Township", "longitude": 120.594, "latitude": 23.2982 }
    ]
  },
  {
    "city": "臺南市",
    "city_en": "Tainan City",
    "districts": [
      { "name": "中西區", "name_en": "West Central District", "longitude": 120.1987, "latitude": 22.9921 },
      { "name": "東區", "name_en": "East District", "longitude": 120.2238, "latitude": 22.9849 },
      { "name": "南區", "name_en": "South District", "longitude": 120.1878, "latitude": 22.9602 },
      { "name": "北區", "name_en": "North District", "longitude": 120.2033, "latitude": 23.0071 },
      { "name": "安平區", "name_en": "Anping District", "longitude": 120.1603, "latitude": 22.9967 },
      { "name": "安南區", "name_en": "Annan District", "longitude": 120.1837, "latitude": 23.0478 },
      { "name": "永康區", "name_en": "Yongkang District", "longitude": 120.2526, "latitude": 23.0256 },
      { "name": "歸仁區", "name_en": "Guiren District", "longitude": 120.2941, "latitude": 22.9669 },
      { "name": "新化區", "name_en": "Xinhua District", "longitude": 120.3341, "latitude": 23.0336 },
      { "name": "左鎮區", "name_en": "Zuozhen District", "longitude": 120.4072, "latitude": 23.0567 },
      { "name": "玉井區", "name_en": "Yujing District", "longitude": 120.4601, "latitude": 23.1241 },
      { "name": "楠西區", "name_en": "Nanxi District", "longitude": 120.4854, "latitude": 23.1741 },
      { "name": "南化區", "name_en": "Nanhua District", "longitude": 120.478, "latitude": 23.0441 },
      { "name": "仁德區", "name_en": "Rende District", "longitude": 120.2504, "latitude": 22.9717 },
      { "name": "關廟區", "name_en": "Guanmiao District", "longitude": 120.3275, "latitude": 22.9622 },
      { "name": "龍崎區", "name_en": "Longqi District", "longitude": 120.3621, "latitude": 22.9649 },
      { "name": "官田區", "name_en": "Guantian District", "longitude": 120.32, "latitude": 23.1843 },
      { "name": "麻豆區", "name_en": "Madou District", "longitude": 120.2482, "latitude": 23.1818 },
      { "name": "佳里區", "name_en": "Jiali District", "longitude": 120.1764, "latitude": 23.1606 },
      { "name": "西港區", "name_en": "Xigang District", "longitude": 120.2016, "latitude": 23.1226 },
      { "name": "七股區", "name_en": "Qigu District", "longitude": 120.139, "latitude": 23.1396 },
      { "name": "將軍區", "name_en": "Jiangjun District", "longitude": 120.1293, "latitude": 23.1997 },
      { "name": "學甲區", "name_en": "Xuejia District", "longitude": 120.1804, "latitude": 23.2324 },
      { "name": "北門區", "name_en": "Beimen District", "longitude": 120.1258, "latitude": 23.2673 },
      { "name": "新營區", "name_en": "Xinying District", "longitude": 120.3168, "latitude": 23.3065 },
      { "name": "後壁區", "name_en": "Houbi District", "longitude": 120.3623, "latitude": 23.3662 },
      { "name": "白河區", "name_en": "Baihe District", "longitude": 120.4162, "latitude": 23.3512 },
      { "name": "東山區", "name_en": "Dongshan District", "longitude": 120.4045, "latitude": 23.3243 },
      { "name": "六甲區", "name_en": "Liujia District", "longitude": 120.3476, "latitude": 23.2322 },
      { "name": "下營區", "name_en": "Xiaying District", "longitude": 120.2641, "latitude": 23.2351 },
      { "name": "柳營區", "name_en": "Liuying District", "longitude": 120.311, "latitude": 23.2774 },
      { "name": "鹽水區", "name_en": "Yanshui District", "longitude": 120.2665, "latitude": 23.3197 },
      { "name": "善化區", "name_en": "Shanhua District", "longitude": 120.297, "latitude": 23.1322 },
      { "name": "大內區", "name_en": "Danei District", "longitude": 120.3541, "latitude": 23.1194 },
      { "name": "山上區", "name_en": "Shanshang District", "longitude": 120.3524, "latitude": 23.1031 },
      { "name": "新市區", "name_en": "Xinshi District", "longitude": 120.2973, "latitude": 23.0786 },
      { "name": "安定區", "name_en": "Anding District", "longitude": 120.2372, "latitude": 23.1215 }
    ]
  },
  {
    "city": "高雄市",
    "city_en": "Kaohsiung City",
    "districts": [
      { "name": "新興區", "name_en": "Xinxing District", "longitude": 120.3045, "latitude": 22.6273 },
      { "name": "前金區", "name_en": "Qianjin District", "longitude": 120.2941, "latitude": 22.6238 },
      { "name": "苓雅區", "name_en": "Lingya District", "longitude": 120.3120, "latitude": 22.6217 },
      { "name": "鹽埕區", "name_en": "Yancheng District", "longitude": 120.2840, "latitude": 22.6247 },
      { "name": "鼓山區", "name_en": "Gushan District", "longitude": 120.2676, "latitude": 22.6465 },
      { "name": "旗津區", "name_en": "Qijin District", "longitude": 120.2858, "latitude": 22.5833 },
      { "name": "前鎮區", "name_en": "Qianzhen District", "longitude": 120.3217, "latitude": 22.5855 },
      { "name": "三民區", "name_en": "Sanmin District", "longitude": 120.3175, "latitude": 22.6441 },
      { "name": "楠梓區", "name_en": "Nanzi District", "longitude": 120.3073, "latitude": 22.7231 },
      { "name": "小港區", "name_en": "Xiaogang District", "longitude": 120.3547, "latitude": 22.5487 },
      { "name": "左營區", "name_en": "Zuoying District", "longitude": 120.2965, "latitude": 22.6936 },
      { "name": "仁武區", "name_en": "Renwu District", "longitude": 120.3475, "latitude": 22.7003 },
      { "name": "大社區", "name_en": "Dashe District", "longitude": 120.3601, "latitude": 22.7303 },
      { "name": "岡山區", "name_en": "Gangshan District", "longitude": 120.2925, "latitude": 22.7936 },
      { "name": "路竹區", "name_en": "Luzhu District", "longitude": 120.2638, "latitude": 22.8533 },
      { "name": "阿蓮區", "name_en": "Alian District", "longitude": 120.3341, "latitude": 22.8841 },
      { "name": "田寮區", "name_en": "Tianliao District", "longitude": 120.3601, "latitude": 22.8732 },
      { "name": "燕巢區", "name_en": "Yanchao District", "longitude": 120.3638, "latitude": 22.7933 },
      { "name": "橋頭區", "name_en": "Qiaotou District", "longitude": 120.3056, "latitude": 22.7562 },
      { "name": "梓官區", "name_en": "Ziguan District", "longitude": 120.2662, "latitude": 22.7617 },
      { "name": "彌陀區", "name_en": "Mituo District", "longitude": 120.2472, "latitude": 22.7841 },
      { "name": "永安區", "name_en": "Yong'an District", "longitude": 120.2241, "latitude": 22.8182 },
      { "name": "湖內區", "name_en": "Hunei District", "longitude": 120.2141, "latitude": 22.9062 },
      { "name": "鳳山區", "name_en": "Fengshan District", "longitude": 120.3582, "latitude": 22.6247 },
      { "name": "大寮區", "name_en": "Daliao District", "longitude": 120.3951, "latitude": 22.6033 },
      { "name": "林園區", "name_en": "Linyuan District", "longitude": 120.3956, "latitude": 22.5082 },
      { "name": "鳥松區", "name_en": "Niaosong District", "longitude": 120.3638, "latitude": 22.6593 },
      { "name": "大樹區", "name_en": "Dashu District", "longitude": 120.4262, "latitude": 22.6932 },
      { "name": "旗山區", "name_en": "Qishan District", "longitude": 120.4828, "latitude": 22.8872 },
      { "name": "美濃區", "name_en": "Meinong District", "longitude": 120.5422, "latitude": 22.8953 },
      { "name": "六龜區", "name_en": "Liugui District", "longitude": 120.6341, "latitude": 22.9962 },
      { "name": "內門區", "name_en": "Neimen District", "longitude": 120.4632, "latitude": 22.9202 },
      { "name": "杉林區", "name_en": "Shanlin District", "longitude": 120.5375, "latitude": 22.9732 },
      { "name": "甲仙區", "name_en": "Jiaxian District", "longitude": 120.589, "latitude": 23.0831 },
      { "name": "桃源區", "name_en": "Taoyuan District", "longitude": 120.7621, "latitude": 23.1592 },
      { "name": "那瑪夏區", "name_en": "Namasia District", "longitude": 120.6865, "latitude": 23.2562 },
      { "name": "茂林區", "name_en": "Maolin District", "longitude": 120.6652, "latitude": 22.887 },
      { "name": "茄萣區", "name_en": "Qieding District", "longitude": 120.1843, "latitude": 22.9067 }
    ]
  },
  {
    "city": "屏東縣",
    "city_en": "Pingtung County",
    "districts": [
      { "name": "屏東市", "name_en": "Pingtung City", "longitude": 120.4862, "latitude": 22.6732 },
      { "name": "三地門鄉", "name_en": "Sandimen Township", "longitude": 120.6552, "latitude": 22.7162 },
      { "name": "霧臺鄉", "name_en": "Wutai Township", "longitude": 120.7323, "latitude": 22.7482 },
      { "name": "瑪家鄉", "name_en": "Majia Township", "longitude": 120.6432, "latitude": 22.7052 },
      { "name": "九如鄉", "name_en": "Jiuru Township", "longitude": 120.4892, "latitude": 22.7392 },
      { "name": "里港鄉", "name_en": "Ligang Township", "longitude": 120.4932, "latitude": 22.7792 },
      { "name": "高樹鄉", "name_en": "Gaoshu Township", "longitude": 120.6012, "latitude": 22.8262 },
      { "name": "鹽埔鄉", "name_en": "Yanpu Township", "longitude": 120.5732, "latitude": 22.7532 },
      { "name": "長治鄉", "name_en": "Changzhi Township", "longitude": 120.5262, "latitude": 22.6772 },
      { "name": "麟洛鄉", "name_en": "Linluo Township", "longitude": 120.5282, "latitude": 22.6512 },
      { "name": "竹田鄉", "name_en": "Zhutian Township", "longitude": 120.5312, "latitude": 22.5852 },
      { "name": "內埔鄉", "name_en": "Neipu Township", "longitude": 120.5672, "latitude": 22.6142 },
      { "name": "萬丹鄉", "name_en": "Wandan Township", "longitude": 120.4852, "latitude": 22.5892 },
      { "name": "潮州鎮", "name_en": "Chaozhou Township", "longitude": 120.5422, "latitude": 22.5512 },
      { "name": "泰武鄉", "name_en": "Taiwu Township", "longitude": 120.6352, "latitude": 22.5922 },
      { "name": "來義鄉", "name_en": "Laiyi Township", "longitude": 120.6322, "latitude": 22.5242 },
      { "name": "萬巒鄉", "name_en": "Wanluan Township", "longitude": 120.5692, "latitude": 22.5722 },
      { "name": "崁頂鄉", "name_en": "Kanding Township", "longitude": 120.5092, "latitude": 22.5132 },
      { "name": "新埤鄉", "name_en": "Xinpi Township", "longitude": 120.5512, "latitude": 22.4682 },
      { "name": "南州鄉", "name_en": "Nanzhou Township", "longitude": 120.5092, "latitude": 22.4892 },
      { "name": "林邊鄉", "name_en": "Linbian Township", "longitude": 120.5132, "latitude": 22.4322 },
      { "name": "東港鎮", "name_en": "Donggang Township", "longitude": 120.4542, "latitude": 22.4662 },
      { "name": "琉球鄉", "name_en": "Liuqiu Township", "longitude": 120.3692, "latitude": 22.3422 },
      { "name": "佳冬鄉", "name_en": "Jiadong Township", "longitude": 120.5512, "latitude": 22.4182 },
      { "name": "新園鄉", "name_en": "Xinyuan Township", "longitude": 120.4432, "latitude": 22.5442 },
      { "name": "枋寮鄉", "name_en": "Fangliao Township", "longitude": 120.5932, "latitude": 22.3662 },
      { "name": "枋山鄉", "name_en": "Fangshan Township", "longitude": 120.6552, "latitude": 22.2592 },
      { "name": "春日鄉", "name_en": "Chunri Township", "longitude": 120.6312, "latitude": 22.3712 },
      { "name": "獅子鄉", "name_en": "Shizi Township", "longitude": 120.7042, "latitude": 22.2022 },
      { "name": "車城鄉", "name_en": "Checheng Township", "longitude": 120.7132, "latitude": 22.0732 },
      { "name": "牡丹鄉", "name_en": "Mudan Township", "longitude": 120.7742, "latitude": 22.1262 },
      { "name": "恆春鎮", "name_en": "Hengchun Township", "longitude": 120.7452, "latitude": 22.0022 },
      { "name": "滿州鄉", "name_en": "Manzhou Township", "longitude": 120.8372, "latitude": 22.0212 }
    ]
  },
  {
    "city": "宜蘭縣",
    "city_en": "Yilan County",
    "districts": [
      { "name": "宜蘭市", "name_en": "Yilan City", "longitude": 121.7562, "latitude": 24.7592 },
      { "name": "羅東鎮", "name_en": "Luodong Township", "longitude": 121.7672, "latitude": 24.6762 },
      { "name": "蘇澳鎮", "name_en": "Su'ao Township", "longitude": 121.8442, "latitude": 24.5942 },
      { "name": "頭城鎮", "name_en": "Toucheng Township", "longitude": 121.8232, "latitude": 24.8592 },
      { "name": "礁溪鄉", "name_en": "Jiaoxi Township", "longitude": 121.7722, "latitude": 24.8232 },
      { "name": "壯圍鄉", "name_en": "Zhuangwei Township", "longitude": 121.7862, "latitude": 24.7452 },
      { "name": "員山鄉", "name_en": "Yuanshan Township", "longitude": 121.7052, "latitude": 24.7412 },
      { "name": "冬山鄉", "name_en": "Dongshan Township", "longitude": 121.7912, "latitude": 24.6342 },
      { "name": "五結鄉", "name_en": "Wujie Township", "longitude": 121.7982, "latitude": 24.6852 },
      { "name": "三星鄉", "name_en": "Sanxing Township", "longitude": 121.6522, "latitude": 24.6662 },
      { "name": "大同鄉", "name_en": "Datong Township", "longitude": 121.6052, "latitude": 24.6762 },
      { "name": "南澳鄉", "name_en": "Nan'ao Township", "longitude": 121.7992, "latitude": 24.4642 }
    ]
  },
  {
    "city": "花蓮縣",
    "city_en": "Hualien County",
    "districts": [
      { "name": "花蓮市", "name_en": "Hualien City", "longitude": 121.6062, "latitude": 23.9762 },
      { "name": "新城鄉", "name_en": "Xincheng Township", "longitude": 121.6422, "latitude": 24.0762 },
      { "name": "秀林鄉", "name_en": "Xiulin Township", "longitude": 121.6212, "latitude": 24.0512 },
      { "name": "吉安鄉", "name_en": "Ji'an Township", "longitude": 121.5672, "latitude": 23.9602 },
      { "name": "壽豐鄉", "name_en": "Shoufeng Township", "longitude": 121.5082, "latitude": 23.8692 },
      { "name": "鳳林鎮", "name_en": "Fenglin Township", "longitude": 121.4512, "latitude": 23.7452 },
      { "name": "光復鄉", "name_en": "Guangfu Township", "longitude": 121.4232, "latitude": 23.6692 },
      { "name": "豐濱鄉", "name_en": "Fengbin Township", "longitude": 121.5172, "latitude": 23.5972 },
      { "name": "瑞穗鄉", "name_en": "Ruisui Township", "longitude": 121.3782, "latitude": 23.4972 },
      { "name": "萬榮鄉", "name_en": "Wanrong Township", "longitude": 121.3189, "latitude": 23.7277 },
      { "name": "玉里鎮", "name_en": "Yuli Township", "longitude": 121.3162, "latitude": 23.3332 },
      { "name": "卓溪鄉", "name_en": "Zhuoxi Township", "longitude": 121.2492, "latitude": 23.3452 },
      { "name": "富里鄉", "name_en": "Fuli Township", "longitude": 121.2502, "latitude": 23.1762 }
    ]
  },
  {
    "city": "臺東縣",
    "city_en": "Taitung County",
    "districts": [
      { "name": "臺東市", "name_en": "Taitung City", "longitude": 121.1462, "latitude": 22.7552 },
      { "name": "三仙鄉", "name_en": "Sanxing Township", "longitude": 121.3712, "latitude": 23.1232 },
      { "name": "成功鎮", "name_en": "Chenggong Township", "longitude": 121.3792, "latitude": 23.1002 },
      { "name": "關山鎮", "name_en": "Guanshan Township", "longitude": 121.1622, "latitude": 23.0452 },
      { "name": "卑南鄉", "name_en": "Beinan Township", "longitude": 121.0832, "latitude": 22.7932 },
      { "name": "鹿野鄉", "name_en": "Luye Township", "longitude": 121.1352, "latitude": 22.9142 },
      { "name": "池上鄉", "name_en": "Chishang Township", "longitude": 121.2152, "latitude": 23.1222 },
      { "name": "東河鄉", "name_en": "Donghe Township", "longitude": 121.3032, "latitude": 22.9712 },
      { "name": "長濱鄉", "name_en": "Changbin Township", "longitude": 121.4532, "latitude": 23.3152 },
      { "name": "太麻里鄉", "name_en": "Taimali Township", "longitude": 121.0012, "latitude": 22.6182 },
      { "name": "大武鄉", "name_en": "Dawu Township", "longitude": 120.8892, "latitude": 22.3412 },
      { "name": "金峰鄉", "name_en": "Jinfeng Township", "longitude": 120.9712, "latitude": 22.5932 },
      { "name": "達仁鄉", "name_en": "Daren Township", "longitude": 120.8852, "latitude": 22.2952 },
      { "name": "蘭嶼鄉", "name_en": "Lanyu Township", "longitude": 121.5492, "latitude": 22.0562 },
      { "name": "綠島鄉", "name_en": "Ludao Township", "longitude": 121.4842, "latitude": 22.6612 },
      { "name": "海端鄉", "name_en": "Haiduan Township", "longitude": 121.1732, "latitude": 23.1002 }
    ]
  },
  {
    "city": "澎湖縣",
    "city_en": "Penghu County",
    "districts": [
      { "name": "馬公市", "name_en": "Magong City", "longitude": 119.5662, "latitude": 23.5652 },
      { "name": "湖西鄉", "name_en": "Huxi Township", "longitude": 119.6582, "latitude": 23.5852 },
      { "name": "白沙鄉", "name_en": "Baisha Township", "longitude": 119.5932, "latitude": 23.6652 },
      { "name": "西嶼鄉", "name_en": "Xiyu Township", "longitude": 119.5132, "latitude": 23.6012 },
      { "name": "望安鄉", "name_en": "Wang'an Township", "longitude": 119.5032, "latitude": 23.3712 },
      { "name": "七美鄉", "name_en": "Qimei Township", "longitude": 119.4232, "latitude": 23.1952 }
    ]
  },
  {
    "city": "金門縣",
    "city_en": "Kinmen County",
    "districts": [
      { "name": "金城鎮", "name_en": "Jincheng Township", "longitude": 118.3162, "latitude": 24.4162 },
      { "name": "金湖鎮", "name_en": "Jinhu Township", "longitude": 118.4192, "latitude": 24.4392 },
      { "name": "金沙鎮", "name_en": "Jinsha Township", "longitude": 118.4262, "latitude": 24.4912 },
      { "name": "金寧鄉", "name_en": "Jinning Township", "longitude": 118.3362, "latitude": 24.4562 },
      { "name": "烈嶼鄉", "name_en": "Lieyu Township", "longitude": 118.2432, "latitude": 24.4292 },
      { "name": "烏坵鄉", "name_en": "Wuqiu Township", "longitude": 119.4442, "latitude": 24.9852 }
    ]
  }
]
